IRIDIUM 136             
1 42962U 17061H   23341.21605199  .00000367  00000+0  12404-3 0  9993
2 42962  86.3983  50.9631 0002165 104.2787 255.8649 14.34216611322543
